0 OPTUS A1 R/B(PAM-D)
1 15996U 85076E   13282.66857005  .00000250  00000-0  55354-3 0  2185
2 15996 025.7607 154.5900 7175101 241.6299 030.2617 02.35012281185207
0 OPTUS A1 R/B(PAM-D)
1 15996U 85076E   13283.94432411  .00000235  00000-0  55223-3 0  2196
2 15996 025.7616 154.0827 7175779 242.4757 029.6083 02.35013175185234
0 OPTUS A1 R/B(PAM-D)
1 15996U 85076E   13286.49588862  .00000215  00000-0  57745-3 0  2202
2 15996 025.7641 153.0714 7176881 244.1529 028.3698 02.35015361185290
0 OPTUS A1 R/B(PAM-D)
1 15996U 85076E   13287.77165622  .00000306  00000-0  74325-3 0  2214
2 15996 025.7612 152.5771 7176969 244.9792 027.7556 02.35017848185324
0 OPTUS A1 R/B(PAM-D)
1 15996U 85076E   13292.02441034  .00000417  00000-0  82456-3 0  2220
2 15996 025.7538 150.9456 7178065 247.7170 025.9121 02.35023091185429
0 OPTUS A1 R/B(PAM-D)
1 15996U 85076E   13293.30023541  .00000453  00000-0  85120-3 0  2233
2 15996 025.7461 150.4554 7178273 248.5528 025.3689 02.35024702185451
0 OPTUS A1 R/B(PAM-D)
1 15996U 85076E   13293.72551463  .00000468  00000-0  86405-3 0  2242
2 15996 025.7484 150.2922 7178537 248.8226 025.1991 02.35025430185468
